SONATE                  
1 44400U 19038Q   24095.93863130  .00016476  00000+0  55768-3 0  9993
2 44400  97.7120  86.9702 0017300  14.6003 345.5733 15.30537474262860
LUCKY-7                 
1 44406U 19038W   24095.92821170  .00029153  00000+0  78093-3 0  9998
2 44406  97.7042  90.1440 0013865   4.4178 355.7186 15.37873495263080
BEESAT 9                
1 44412U 19038AC  24095.94656066  .00117021  00000+0  12554-2 0  9998
2 44412  97.6848  97.0418 0004433   5.8954 354.2355 15.63410717263275
JAISAT-1                
1 44419U 19038F   24095.96162834  .00108384  00000+0  12083-2 0  9991
2 44419  97.6831  98.0971 0004308   7.4115 352.7205 15.62450625263657
DUCHIFAT-3              
1 44854U 19089C   24096.16938601  .00010161  00000+0  55854-3 0  9995
2 44854  36.9578 131.4046 0009614 211.5916 148.4254 15.13547649237127
M2 PATHFINDER           
1 45727U 20037E   24095.65066205  .00002827  00000+0  25411-3 0  9991
2 45727  97.7743 272.5234 0011712  17.0547 343.1066 14.96439905204947
NETSAT-4                
1 46504U 20068U   24095.85439986  .00007885  00000+0  44729-3 0  9993
2 46504  97.7992  51.1514 0007942 248.1735 111.8650 15.13223362193073
NETSAT-3                
1 46505U 20068V   24095.81397770  .00008157  00000+0  46862-3 0  9997
2 46505  97.7966  50.7037 0007237 259.8744 100.1670 15.12762444193066
NETSAT-1                
1 46506U 20068W   24095.85887654  .00005937  00000+0  35439-3 0  9998
2 46506  97.7986  50.3720 0005939 273.5480  86.5070 15.11503945193048
NETSAT-2                
1 46507U 20068X   24095.86731490  .00008450  00000+0  48038-3 0  9998
2 46507  97.7980  50.8213 0005117 281.4869  78.5786 15.13136279193029
WILDTRACKCUBE-SIMBA     
1 47941U 21022K   24096.11151078  .00010509  00000+0  50431-3 0  9997
2 47941  97.4693 353.6336 0017775  45.8265 314.4427 15.18918751167365
BEESAT-6                
1 47957U 21022AB  24095.98508764  .00074111  00000+0  15248-2 0  9991
2 47957  97.4539   1.2091 0010263  34.5637 325.6277 15.45638863167672
SMOG-1                  
1 47964U 21022AJ  24096.21279342  .00070230  00000+0  14377-2 0  9993
2 47964  97.4711   4.4640 0008291  20.6976 339.4607 15.45822248166892
BCCSAT-1                
1 48041U 21022AK  24096.17513964  .00042342  00000+0  11410-2 0  9994
2 48041  97.4708   1.4902 0008591  21.1941 338.9657 15.37667260166671
BEESAT-5                
1 48083U 21022AM  24095.97721294  .00101657  00000+0  17323-2 0  9998
2 48083  97.4338   2.0675 0008938  36.1899 323.9956 15.50969228166909
BEESAT-7                
1 48084U 21022AN  24094.25039205  .00061202  00000+0  13640-2 0  9992
2 48084  97.4653 359.7299 0010258  32.4599 327.7277 15.43330365166148
BEESAT-8                
1 48085U 21022AP  24095.97926268  .00021195  00000+0  78726-3 0  9991
2 48085  97.4806 357.5680 0014677  36.8033 323.4210 15.27478698166682
LEDSAT                  
1 49069U 21073D   24096.14301371  .00012677  00000+0  55829-3 0  9996
2 49069  97.4434 167.9059 0021048 177.8097 182.3234 15.21767637145336
SITRO-AIS 5 (KATYS)     
1 57176U 23091L   24096.22182398  .00006288  00000+0  42296-3 0  9996
2 57176  97.6224 149.0807 0018073  15.4494 344.7282 15.06961054 42501
SITRO-AIS 6 (CHIRKIN)   
1 57192U 23091AC  24096.14355530  .00005616  00000+0  37763-3 0  9992
2 57192  97.6224 149.0233 0017959  16.3764 343.8040 15.07025071 42495
SITRO-AIS 8 (ANOKHIN)   
1 57193U 23091AD  24096.19079165  .00005094  00000+0  34106-3 0  9993
2 57193  97.6217 149.1085 0017689  17.3275 342.8552 15.07237190 42508
SITRO-AIS 7 (FARTUSHNIY)
1 57194U 23091AE  24096.14657823  .00005507  00000+0  37082-3 0  9997
2 57194  97.6223 149.0142 0017826  16.7749 343.4065 15.06986964 42494
SITRO-AIS 10 (BURDAEV)  
1 57199U 23091AK  24096.17883685  .00006305  00000+0  40317-3 0  9994
2 57199  97.6229 149.7884 0012354   7.0536 353.0864 15.08901554 42547
SITRO-AIS 9 (SHCHUKIN)  
1 57201U 23091AM  24096.17674367  .00006504  00000+0  41574-3 0  9990
2 57201  97.6224 149.7728 0012328   6.9117 353.2279 15.08904638 42545
SITRO-AIS 12 (SMIRENNIY)
1 57204U 23091AQ  24096.14798920  .00006489  00000+0  41288-3 0  9996
2 57204  97.6240 149.8466 0012116   1.8773 358.2499 15.09079494 42546
SITRO-AIS 11 (SHEFFER)  
1 57208U 23091AU  24096.20370394  .00006415  00000+0  40753-3 0  9993
2 57208  97.6238 149.9177 0011944   2.5699 357.5589 15.09143258 42553
SITRO-AIS B             
1 59052U 24039B   24096.17280912  .00016896  00000+0  69841-3 0  9990
2 59052  97.3860  59.0106 0022314 111.7074 248.6542 15.23823345  5462
SITRO-AIS C             
1 59053U 24039C   24096.17258942  .00015934  00000+0  65841-3 0  9997
2 59053  97.3859  59.0094 0022392 112.3960 247.9653 15.23845181  5450
SITRO-AIS 31            
1 59054U 24039D   24096.17072104  .00016806  00000+0  69249-3 0  9997
2 59054  97.3859  59.0119 0022223 112.3944 247.9651 15.23932914  5475
SITRO-AIS 33            
1 59055U 24039E   24096.16845074  .00016354  00000+0  67204-3 0  9998
2 59055  97.3861  59.0163 0021969 112.8126 247.5435 15.24034488  5466
SITRO-AIS F             
1 59056U 24039F   24096.16698694  .00016235  00000+0  66634-3 0  9997
2 59056  97.3861  59.0176 0021786 112.9594 247.3945 15.24081478  5463
SITRO-AIS G             
1 59057U 24039G   24096.16829580  .00016151  00000+0  66416-3 0  9993
2 59057  97.3861  59.0161 0021716 113.0795 247.2734 15.24019177  5468
SITRO-AIS 35            
1 59058U 24039H   24096.16764107  .00017012  00000+0  69809-3 0  9993
2 59058  97.3862  59.0181 0021912 113.0513 247.3038 15.24075298  5462
SITRO-AIS 36            
1 59059U 24039J   24096.16545513  .00016945  00000+0  69412-3 0  9996
2 59059  97.3861  59.0200 0021476 113.0013 247.3493 15.24143607  5469
SITRO-AIS 49            
1 59060U 24039K   24096.16488373  .00017958  00000+0  73486-3 0  9999
2 59060  97.3860  59.0206 0021435 112.9507 247.3995 15.24166246  5468
SITRO-AIS 50            
1 59061U 24039L   24096.16355892  .00017141  00000+0  69971-3 0  9997
2 59061  97.3860  59.0225 0021471 112.9728 247.3778 15.24258836  5461
SITRO-AIS 51            
1 59062U 24039M   24096.16286471  .00017528  00000+0  71484-3 0  9995
2 59062  97.3861  59.0234 0021398 112.9001 247.4498 15.24287093  5462
SITRO-AIS 52            
1 59063U 24039N   24096.16110450  .00017034  00000+0  69340-3 0  9999
2 59063  97.3861  59.0257 0021220 112.7008 247.6476 15.24359875  5463
SITRO-AIS 25            
1 59066U 24039R   24096.16475858  .00003277  00000+0  32412-3 0  9992
2 59066  95.3972  47.9671 0172763 233.5026 125.0174 14.81711402  5299
SITRO-AIS 26            
1 59067U 24039S   24096.16426033  .00003234  00000+0  31999-3 0  9996
2 59067  95.3972  47.9673 0172549 233.5340 124.9874 14.81725156  5299
SITRO-AIS 27            
1 59068U 24039T   24096.09416685  .00003386  00000+0  33410-3 0  9999
2 59068  95.3974  47.9254 0172311 233.6531 124.8680 14.81842679  5280
SITRO-AIS 28            
1 59071U 24039U   24096.16081612  .00003210  00000+0  31671-3 0  9992
2 59071  95.3975  47.9723 0172181 233.4175 125.1096 14.81877470  5296
BEIJING 1               
1 28890U 05043A   24096.21623607  .00000459  00000+0  10052-3 0  9995
2 28890  98.1881 219.6563 0013713 274.9998  84.9638 14.62214566983239
HJ-1A                   
1 33320U 08041A   24096.20096258  .00001574  00000+0  21654-3 0  9994
2 33320  97.6349 106.8322 0018882 247.7177 112.2033 14.79507217839561
HJ-1B                   
1 33321U 08041B   24096.22252978  .00001148  00000+0  15700-3 0  9992
2 33321  97.6311 111.3901 0037064 295.5333  64.2049 14.79938787839588
YAOGAN 4                
1 33446U 08061A   24096.05547518  .00001458  00000+0  20200-3 0  9995
2 33446  97.8757  29.3631 0015607 158.3065 201.8811 14.79397300826747
DEIMOS-1                
1 35681U 09041A   24096.18264401  .00000810  00000+0  13298-3 0  9998
2 35681  97.6801 282.0281 0000222 188.4757 171.6448 14.73132296788568
UK-DMC 2                
1 35683U 09041C   24096.12014702  .00001137  00000+0  18431-3 0  9998
2 35683  97.7700 246.8320 0001138  86.2526 273.8812 14.73030222788259
RISAT 1                 
1 38248U 12017A   24096.02495818  .00008381  00000+0  37011-3 0  9998
2 38248  97.5297 113.2560 0004759 125.1028 235.0655 15.21984533658464
DMC3-FM1                
1 40715U 15032A   24096.18808908  .00000774  00000+0  10050-3 0  9997
2 40715  97.7609 337.2104 0006115 158.3672 201.7801 14.83458352470757
DMC3-FM2                
1 40716U 15032B   24096.14374572  .00000750  00000+0  97576-4 0  9992
2 40716  97.7661 338.1883 0007879 166.0959 194.0474 14.83461663470740
DMC3-FM3                
1 40717U 15032C   24096.16610553  .00000614  00000+0  81095-4 0  9995
2 40717  97.7708 339.4470 0009422 164.5785 195.5718 14.83435338470753
NOAA 15                 
1 25338U 98030A   24096.15256813  .00000196  00000+0  99288-4 0  9998
2 25338  98.5767 124.7820 0010597 172.0375 188.0976 14.26527698347021
DMSP 5D-3 F16 (USA 172) 
1 28054U 03048A   24096.19847289  .00000204  00000+0  13150-3 0  9991
2 28054  99.0232 101.9791 0006175 257.9382 175.4761 14.13984171 55964
NOAA 18                 
1 28654U 05018A   24096.21224410  .00000232  00000+0  14787-3 0  9992
2 28654  98.8767 173.7796 0013178 269.2980  90.6682 14.13160221972952
METEOSAT-9 (MSG-2)      
1 28912U 05049B   24095.58318050  .00000125  00000+0  00000+0 0  9996
2 28912   7.5180  61.4637 0001670 323.9141  63.6733  1.00268529 66990
EWS-G1 (GOES 13)        
1 29155U 06018A   24095.82397194 -.00000171  00000+0  00000+0 0  9998
2 29155   2.4332  86.1062 0087601 252.7816 328.3018  0.99158143 65437
DMSP 5D-3 F17 (USA 191) 
1 29522U 06050A   24096.25575773  .00000214  00000+0  13419-3 0  9990
2 29522  98.7480 108.3291 0009993 180.8041 179.3117 14.14430889898886
